NORAD_CAT_ID,OBJECT_NAME,OBJECT_TYPE,EPOCH,MEAN_MOTION,ECCENTRICITY,INCLINATION,RA_OF_ASC_NODE,ARG_OF_PERICENTER,MEAN_ANOMALY,BSTAR,MEAN_MOTION_DOT,MEAN_MOTION_DDOT,TLE_LINE0,TLE_LINE1,TLE_LINE2,SEMIMAJOR_AXIS,PERIOD,APOGEE,PERIGEE,DECAYED
52546.0,STARLINK-3948,PAYLOAD,2023-12-28 19:12:31,15.08840573,0.0001274,53.2166,128.5469,91.4957,268.6181,0.00010236,1.342e-05,0.0,0 STARLINK-3948,1 52546U 22051P   23362.80037029  .00001342  00000-0  10236-3 0  9992,2 52546  53.2166 128.5469 0001274  91.4957 268.6181 15.08840573 90395,6917.879,95.438,540.625,538.862,0.0
52546.0,STARLINK-3948,PAYLOAD,2023-12-29 14:17:09,15.0884052,0.0001307,53.2167,124.9772,94.679,265.4351,4.7749e-05,4.72e-06,0.0,0 STARLINK-3948,1 52546U 22051P   23363.59525158  .00000472  00000-0  47749-4 0  9997,2 52546  53.2167 124.9772 0001307  94.6790 265.4351 15.08840520 90510,6917.879,95.438,540.648,538.84,0.0
52546.0,STARLINK-3948,PAYLOAD,2023-12-30 10:57:10,15.08840361,0.000135,53.2163,121.1127,86.6409,273.4737,4.3047e-05,3.97e-06,0.0,0 STARLINK-3948,1 52546U 22051P   23364.45637399  .00000397  00000-0  43047-4 0  9997,2 52546  53.2163 121.1127 0001350  86.6409 273.4737 15.08840361 90717,6917.879,95.438,540.678,538.81,0.0
52546.0,STARLINK-3948,PAYLOAD,2023-12-30 14:07:56,15.08841496,0.0001376,53.2169,120.5206,65.7048,294.4088,6.481e-05,7.44e-06,0.0,0 STARLINK-3948,1 52546U 22051P   23364.58885370  .00000744  00000-0  64810-4 0  9992,2 52546  53.2169 120.5206 0001376  65.7048 294.4088 15.08841496 90665,6917.876,95.437,540.693,538.789,0.0
52546.0,STARLINK-3948,PAYLOAD,2023-12-30 15:43:19,15.08850287,0.0001114,53.2173,120.2211,95.7136,264.3983,0.0001315,1.806e-05,0.0,0 STARLINK-3948,1 52546U 22051P   23364.65508475  .00001806  00000-0  13150-3 0  9998,2 52546  53.2173 120.2211 0001114  95.7136 264.3983 15.08850287 90741,6917.849,95.437,540.485,538.943,0.0
52546.0,STARLINK-3948,PAYLOAD,2023-12-31 12:23:21,15.08837074,0.0001298,53.2169,116.3563,71.6399,288.4734,6.5921e-05,7.61e-06,0.0,0 STARLINK-3948,1 52546U 22051P   23365.51621669  .00000761  00000-0  65921-4 0  9998,2 52546  53.2169 116.3563 0001298  71.6399 288.4734 15.08837074 90873,6917.889,95.438,540.652,538.856,0.0
52546.0,STARLINK-3948,PAYLOAD,2023-12-31 13:58:44,15.08839728,0.0001404,53.2168,116.0585,70.9856,289.1288,5.214e-05,5.42e-06,0.0,0 STARLINK-3948,1 52546U 22051P   23365.58245574  .00000542  00000-0  52140-4 0  9998,2 52546  53.2168 116.0585 0001404  70.9856 289.1288 15.08839728 90816,6917.881,95.438,540.717,538.775,0.0
52546.0,STARLINK-3948,PAYLOAD,2024-01-01 12:14:07,15.08845706,0.0001408,53.2169,111.8956,69.8368,290.2776,6.4121e-05,7.33e-06,0.0,0 STARLINK-3948,1 52546U 22051P   24001.50981107  .00000733  00000-0  64121-4 0  9991,2 52546  53.2169 111.8956 0001408  69.8368 290.2776 15.08845706 91023,6917.863,95.437,540.702,538.754,0.0
52546.0,STARLINK-3948,PAYLOAD,2024-01-01 13:49:30,15.08844607,0.0001348,53.2171,111.5974,77.3016,282.8127,3.6635e-05,2.95e-06,0.0,0 STARLINK-3948,1 52546U 22051P   24001.57605185  .00000295  00000-0  36635-4 0  9999,2 52546  53.2171 111.5974 0001348  77.3016 282.8127 15.08844607 90968,6917.866,95.437,540.664,538.799,0.0
52546.0,STARLINK-3948,PAYLOAD,2024-01-01 17:00:19,15.08807965,0.0001364,53.2168,111.0034,74.8355,285.2788,-0.00024375,-4.162e-05,0.0,0 STARLINK-3948,1 52546U 22051P   24001.70856365 -.00004162  00000-0 -24375-3 0  9998,2 52546  53.2168 111.0034 0001364  74.8355 285.2788 15.08807965 91059,6917.978,95.44,540.787,538.9,0.0
52546.0,STARLINK-3948,PAYLOAD,2024-01-02 10:29:48,15.08693409,0.0007983,53.217,107.7332,102.0272,258.1615,-0.00099156,-0.00015985,0.0,0 STARLINK-3948,1 52546U 22051P   24002.43737087 -.00015985  00000-0 -99156-3 0  9992,2 52546  53.2170 107.7332 0007983 102.0272 258.1615 15.08693409 91166,6918.328,95.447,545.716,534.671,0.0
52546.0,STARLINK-3948,PAYLOAD,2024-01-02 13:40:01,15.0914498,0.0006319,53.2198,107.1555,183.5716,176.5232,0.0023882,0.0003826,0.0,0 STARLINK-3948,1 52546U 22051P   24002.56945835  .00038260  00000-0  23882-2 0  9999,2 52546  53.2198 107.1555 0006319 183.5716 176.5232 15.09144980 91115,6916.948,95.418,543.184,534.443,0.0
52546.0,STARLINK-3948,PAYLOAD,2024-01-02 22:00:00,15.07551309,0.0001226,53.216,105.5855,72.8665,10.2087,-0.030223,-0.00437183,0.0,0 STARLINK-3948,1 52546U 22051P   24002.91667824 -.00437183  00000-0 -30223-1 0  9992,2 52546  53.2160 105.5855 0001226  72.8665  10.2087 15.07551309 91234,6921.822,95.519,544.536,542.839,0.0
52546.0,STARLINK-3948,PAYLOAD,2024-01-03 06:00:00,15.07195998,0.0001126,53.2163,104.0913,83.5284,9.4065,0.0014514,0.00021873,0.0,0 STARLINK-3948,1 52546U 22051P   24003.25001157  .00021873  00000-0  14514-2 0  9990,2 52546  53.2163 104.0913 0001126  83.5284   9.4065 15.07195998 91280,6922.91,95.542,545.555,543.995,0.0
52546.0,STARLINK-3948,PAYLOAD,2024-01-03 14:00:01,15.07195136,0.0001244,53.2161,102.6004,77.4395,25.1347,-0.0012935,-0.00019913,0.0,0 STARLINK-3948,1 52546U 22051P   24003.58334491 -.00019913  00000-0 -12935-2 0  9995,2 52546  53.2161 102.6004 0001244  77.4395  25.1347 15.07195136  5804,6922.913,95.542,545.639,543.916,0.0
52546.0,STARLINK-3948,PAYLOAD,2024-01-03 22:00:00,15.07208015,0.0001145,53.2159,101.107,78.108,34.0756,-0.0012705,-0.00019571,0.0,0 STARLINK-3948,1 52546U 22051P   24003.91667824 -.00019571  00000-0 -12705-2 0  9996,2 52546  53.2159 101.1070 0001145  78.1080  34.0756 15.07208015 91389,6922.873,95.541,545.531,543.946,0.0
52546.0,STARLINK-3948,PAYLOAD,2024-01-04 14:00:01,15.07227799,0.0001327,53.2159,98.1226,80.1856,51.2715,-0.0048808,-0.00073857,0.0,0 STARLINK-3948,1 52546U 22051P   24004.58334491 -.00073857  00000-0 -48808-2 0  9991,2 52546  53.2159  98.1226 0001327  80.1856  51.2715 15.07227799 91480,6922.813,95.54,545.596,543.759,0.0
52546.0,STARLINK-3948,PAYLOAD,2024-01-04 22:00:00,15.07189502,0.0001308,53.2156,96.6291,84.7779,56.2989,-0.00095242,-0.00014745,0.0,0 STARLINK-3948,1 52546U 22051P   24004.91667824 -.00014745  00000-0 -95242-3 0  9993,2 52546  53.2156  96.6291 0001308  84.7779  56.2989 15.07189502  5768,6922.93,95.542,545.7,543.889,0.0
52546.0,STARLINK-3948,PAYLOAD,2024-01-05 06:00:00,15.07185535,0.0001373,53.2158,95.1358,92.8445,57.8308,0.0017958,0.00027143,0.0,0 STARLINK-3948,1 52546U 22051P   24005.25001157  .00027143  00000-0  17958-2 0  9993,2 52546  53.2158  95.1358 0001373  92.8445  57.8308 15.07185535 91589,6922.942,95.542,545.758,543.857,0.0
52546.0,STARLINK-3948,PAYLOAD,2024-01-05 14:00:01,15.07195468,0.000139,53.2157,93.645,82.4036,77.8959,0.00038104,5.52e-05,0.0,0 STARLINK-3948,1 52546U 22051P   24005.58334491  .00005520  00000-0  38104-3 0  9991,2 52546  53.2157  93.6450 0001390  82.4036  77.8959 15.07195468  5804,6922.912,95.542,545.739,543.814,0.0
52546.0,STARLINK-3948,PAYLOAD,2024-01-05 22:00:00,15.07215607,0.0001327,53.2155,92.1513,85.6368,84.2821,-0.00092515,-0.00014342,0.0,0 STARLINK-3948,1 52546U 22051P   24005.91667824 -.00014342  00000-0 -92515-3 0  9997,2 52546  53.2155  92.1513 0001327  85.6368  84.2821 15.07215607 91688,6922.85,95.54,545.634,543.796,0.0
52546.0,STARLINK-3948,PAYLOAD,2024-01-06 11:34:21,15.07215435,0.0001287,53.2172,89.6181,89.8676,270.2463,9.57e-05,1.174e-05,0.0,0 STARLINK-3948,1 52546U 22051P   24006.48219754  .00001174  00000-0  95700-4 0  9992,2 52546  53.2172  89.6181 0001287  89.8676 270.2463 15.07215435 91770,6922.85,95.54,545.606,543.825,0.0
52546.0,STARLINK-3948,PAYLOAD,2024-01-06 13:09:51,15.07217641,0.0001304,53.2174,89.3212,85.8962,274.2178,0.00012264,1.585e-05,0.0,0 STARLINK-3948,1 52546U 22051P   24006.54850787  .00001585  00000-0  12264-3 0  9995,2 52546  53.2174  89.3212 0001304  85.8962 274.2178 15.07217641 91710,6922.844,95.54,545.611,543.806,0.0
52546.0,STARLINK-3948,PAYLOAD,2024-01-07 11:26:42,15.07211113,0.0001372,53.2173,85.1648,89.8981,270.2167,0.00017657,2.406e-05,0.0,0 STARLINK-3948,1 52546U 22051P   24007.47687918  .00002406  00000-0  17657-3 0  9996,2 52546  53.2173  85.1648 0001372  89.8981 270.2167 15.07211113 91921,6922.864,95.541,545.679,543.779,0.0
52546.0,STARLINK-3948,PAYLOAD,2024-01-08 11:19:02,15.0721213,0.0001302,53.217,80.7096,90.9362,269.1778,4.503e-05,4.02e-06,0.0,0 STARLINK-3948,1 52546U 22051P   24008.47155665  .00000402  00000-0  45030-4 0  9997,2 52546  53.2170  80.7096 0001302  90.9362 269.1778 15.07212130 92000,6922.861,95.541,545.627,543.824,0.0
52546.0,STARLINK-3948,PAYLOAD,2024-01-09 04:49:25,15.07197385,0.0001234,53.2165,77.4452,94.2297,265.8836,0.00025874,3.656e-05,0.0,0 STARLINK-3948,1 52546U 22051P   24009.20099364  .00003656  00000-0  25874-3 0  9999,2 52546  53.2165  77.4452 0001234  94.2297 265.8836 15.07197385 92182,6922.906,95.542,545.625,543.916,0.0
52546.0,STARLINK-3948,PAYLOAD,2024-01-09 09:35:53,15.07206654,0.000125,53.2166,76.5549,85.8546,274.2589,8.4645e-05,1.005e-05,0.0,0 STARLINK-3948,1 52546U 22051P   24009.39992561  .00001005  00000-0  84645-4 0  9998,2 52546  53.2166  76.5549 0001250  85.8546 274.2589 15.07206654 92146,6922.877,95.541,545.608,543.877,0.0
52546.0,STARLINK-3948,PAYLOAD,2024-01-10 09:28:14,15.0720527,0.0001244,53.2172,72.1011,78.3667,281.7464,5.4398e-05,5.45e-06,0.0,0 STARLINK-3948,1 52546U 22051P   24010.39460662  .00000545  00000-0  54398-4 0  9992,2 52546  53.2172  72.1011 0001244  78.3667 281.7464 15.07205270 92365,6922.882,95.541,545.608,543.885,0.0
52546.0,STARLINK-3948,PAYLOAD,2024-01-11 09:20:34,15.07202583,0.0001305,53.2172,67.6452,96.8103,263.3037,0.00017196,2.335e-05,0.0,0 STARLINK-3948,1 52546U 22051P   24011.38928573  .00002335  00000-0  17196-3 0  9995,2 52546  53.2172  67.6452 0001305  96.8103 263.3037 15.07202583 92446,6922.89,95.541,545.658,543.851,0.0
52546.0,STARLINK-3948,PAYLOAD,2024-01-12 10:48:23,15.07211055,0.0001713,53.2178,62.8962,102.3273,257.791,7.7341e-05,8.94e-06,0.0,0 STARLINK-3948,1 52546U 22051P   24012.45027484  .00000894  00000-0  77341-4 0  9992,2 52546  53.2178  62.8962 0001713 102.3273 257.7910 15.07211055 92675,6922.864,95.541,545.915,543.543,0.0
